start=new Date('2023-04-19T00:00:00.000Z').valueOf();
sats=[{"TLE_LINE1":"1 44925U 20001M   23108.85291176  .00019089  00000-0  12968-2 0  9995","MEAN_MOTION_DOT":"0.00019089","LAUNCH_DATE":"2020-01-07","EPHEMERIS_TYPE":"0","BSTAR":"0.00129680000000","FILE":"3889987","OBJECT_TYPE":"PAYLOAD","TIME_SYSTEM":"UTC","TLE_LINE2":"2 44925  53.0544  46.4472 0001739  94.9934 265.1253 15.06404019180702","PERIAPSIS":"545.997","SEMIMAJOR_AXIS":"6925.336","SITE":"AFETR","OBJECT_NAME":"STARLINK-1112","ECCENTRICITY":"0.00017390","MEAN_ELEMENT_THEORY":"SGP4","OBJECT_ID":"2020-001M","REF_FRAME":"TEME","MEAN_ANOMALY":"265.1253","ELEMENT_SET_NO":"999","EPOCH":"2023-04-18T20:28:11.576064","NORAD_CAT_ID":"44925","APOAPSIS":"548.406","DECAY_DATE":null,"GP_ID":"230327982","REV_AT_EPOCH":"18070","COUNTRY_CODE":"US","CENTER_NAME":"EARTH","ARG_OF_PERICENTER":"94.9934","MEAN_MOTION_DDOT":"0.0000000000000","RCS_SIZE":"LARGE","INCLINATION":"53.0544","MEAN_MOTION":"15.06404019","RA_OF_ASC_NODE":"46.4472","PERIOD":"95.592","CLASSIFICATION_TYPE":"U"},{"BSTAR":"0.00092281000000","FILE":"3889987","OBJECT_TYPE":"PAYLOAD","TIME_SYSTEM":"UTC","TLE_LINE2":"2 44926  53.0611  46.5442 0000988 116.5955 243.5136 15.06398433181393","TLE_LINE1":"1 44926U 20001N   23108.84923539  .00013490  00000-0  92281-3 0  9997","MEAN_MOTION_DOT":"0.00013490","LAUNCH_DATE":"2020-01-07","EPHEMERIS_TYPE":"0","OBJECT_ID":"2020-001N","MEAN_ELEMENT_THEORY":"SGP4","REF_FRAME":"TEME","MEAN_ANOMALY":"243.5136","PERIAPSIS":"546.534","SEMIMAJOR_AXIS":"6925.353","OBJECT_NAME":"STARLINK-1113","SITE":"AFETR","ECCENTRICITY":"0.00009880","DECAY_DATE":null,"GP_ID":"230327236","REV_AT_EPOCH":"18139","COUNTRY_CODE":"US","CENTER_NAME":"EARTH","ARG_OF_PERICENTER":"116.5955","ELEMENT_SET_NO":"999","EPOCH":"2023-04-18T20:22:53.937696","NORAD_CAT_ID":"44926","APOAPSIS":"547.903","MEAN_MOTION":"15.06398433","RA_OF_ASC_NODE":"46.5442","PERIOD":"95.592","CLASSIFICATION_TYPE":"U","RCS_SIZE":"LARGE","INCLINATION":"53.0611","MEAN_MOTION_DDOT":"0.0000000000000"},{"MEAN_MOTION_DDOT":"0.0000000000000","RCS_SIZE":"LARGE","INCLINATION":"53.0569","RA_OF_ASC_NODE":"46.7028","MEAN_MOTION":"15.06396646","CLASSIFICATION_TYPE":"U","PERIOD":"95.592","EPOCH":"2023-04-18T19:08:36.573792","ELEMENT_SET_NO":"999","APOAPSIS":"548.583","NORAD_CAT_ID":"44927","DECAY_DATE":null,"GP_ID":"230326986","CENTER_NAME":"EARTH","ARG_OF_PERICENTER":"117.3664","COUNTRY_CODE":"US","REV_AT_EPOCH":"18070","SITE":"AFETR","ECCENTRICITY":"0.00019620","OBJECT_NAME":"STARLINK-1114","SEMIMAJOR_AXIS":"6925.359","PERIAPSIS":"545.865","MEAN_ANOMALY":"242.7524","REF_FRAME":"TEME","MEAN_ELEMENT_THEORY":"SGP4","OBJECT_ID":"2020-001P","LAUNCH_DATE":"2020-01-07","MEAN_MOTION_DOT":"0.00021293","TLE_LINE1":"1 44927U 20001P   23108.79764553  .00021293  00000-0  14442-2 0  9993","EPHEMERIS_TYPE":"0","BSTAR":"0.00144420000000","TIME_SYSTEM":"UTC","TLE_LINE2":"2 44927  53.0569  46.7028 0001962 117.3664 242.7524 15.06396646180707","OBJECT_TYPE":"PAYLOAD","FILE":"3889987"},{"LAUNCH_DATE":"2020-01-07","MEAN_MOTION_DOT":"0.00020322","TLE_LINE1":"1 44928U 20001Q   23108.86029364  .00020322  00000-0  13796-2 0  9999","EPHEMERIS_TYPE":"0","BSTAR":"0.00137960000000","TIME_SYSTEM":"UTC","TLE_LINE2":"2 44928  53.0547  46.4171 0001127  83.1954 276.9164 15.06390129180715","OBJECT_TYPE":"PAYLOAD","FILE":"3889987","SITE":"AFETR","OBJECT_NAME":"STARLINK-1119","ECCENTRICITY":"0.00011270","SEMIMAJOR_AXIS":"6925.379","PERIAPSIS":"546.463","MEAN_ANOMALY":"276.9164","REF_FRAME":"TEME","OBJECT_ID":"2020-001Q","MEAN_ELEMENT_THEORY":"SGP4","EPOCH":"2023-04-18T20:38:49.370496","ELEMENT_SET_NO":"999","APOAPSIS":"548.024","NORAD_CAT_ID":"44928","DECAY_DATE":null,"GP_ID":"230328234","CENTER_NAME":"EARTH","ARG_OF_PERICENTER":"83.1954","COUNTRY_CODE":"US","REV_AT_EPOCH":"18071","MEAN_MOTION_DDOT":"0.0000000000000","RCS_SIZE":"LARGE","INCLINATION":"53.0547","RA_OF_ASC_NODE":"46.4171","MEAN_MOTION":"15.06390129","CLASSIFICATION_TYPE":"U","PERIOD":"95.593"},{"CLASSIFICATION_TYPE":"U","PERIOD":"95.592","RA_OF_ASC_NODE":"46.4830","MEAN_MOTION":"15.06397285","MEAN_MOTION_DDOT":"0.0000000000000","RCS_SIZE":"LARGE","INCLINATION":"53.0548","ARG_OF_PERICENTER":"75.1816","CENTER_NAME":"EARTH","REV_AT_EPOCH":"18070","COUNTRY_CODE":"US","GP_ID":"230328482","DECAY_DATE":null,"APOAPSIS":"547.598","NORAD_CAT_ID":"44929","EPOCH":"2023-04-18T20:17:35.075040","ELEMENT_SET_NO":"999","MEAN_ANOMALY":"284.9233","OBJECT_ID":"2020-001R","MEAN_ELEMENT_THEORY":"SGP4","REF_FRAME":"TEME","SEMIMAJOR_AXIS":"6925.357","SITE":"AFETR","OBJECT_NAME":"STARLINK-1121","ECCENTRICITY":"0.00005430","PERIAPSIS":"546.846","TLE_LINE2":"2 44929  53.0548  46.4830 0000543  75.1816 284.9233 15.06397285180703","TIME_SYSTEM":"UTC","FILE":"3889987","OBJECT_TYPE":"PAYLOAD","BSTAR":"0.00115550000000","EPHEMERIS_TYPE":"0","MEAN_MOTION_DOT":"0.00016970","LAUNCH_DATE":"2020-01-07","TLE_LINE1":"1 44929U 20001R   23108.84554485  .00016970  00000-0  11555-2 0  9990"},{"MEAN_ANOMALY":"221.5867","REF_FRAME":"TEME","OBJECT_ID":"2020-001S","MEAN_ELEMENT_THEORY":"SGP4","SITE":"AFETR","OBJECT_NAME":"STARLINK-1123","ECCENTRICITY":"0.00011920","SEMIMAJOR_AXIS":"6925.317","PERIAPSIS":"546.356","BSTAR":"0.00193350000000","TIME_SYSTEM":"UTC","TLE_LINE2":"2 44930  53.0542  49.3142 0001192 138.5213 221.5867 15.06410302180619","OBJECT_TYPE":"PAYLOAD","FILE":"3889768","LAUNCH_DATE":"2020-01-07","MEAN_MOTION_DOT":"0.00028643","TLE_LINE1":"1 44930U 20001S   23108.21525738  .00028643  00000-0  19335-2 0  9996","EPHEMERIS_TYPE":"0","RA_OF_ASC_NODE":"49.3142","MEAN_MOTION":"15.06410302","CLASSIFICATION_TYPE":"U","PERIOD":"95.591","MEAN_MOTION_DDOT":"0.0000000000000","RCS_SIZE":"LARGE","INCLINATION":"53.0542","DECAY_DATE":null,"GP_ID":"230304036","CENTER_NAME":"EARTH","ARG_OF_PERICENTER":"138.5213","COUNTRY_CODE":"US","REV_AT_EPOCH":"18061","EPOCH":"2023-04-18T05:09:58.237632","ELEMENT_SET_NO":"999","APOAPSIS":"548.007","NORAD_CAT_ID":"44930"},{"EPOCH":"2023-04-18T19:42:29.662560","ELEMENT_SET_NO":"999","APOAPSIS":"533.515","NORAD_CAT_ID":"44931","DECAY_DATE":null,"GP_ID":"230327484","CENTER_NAME":"EARTH","ARG_OF_PERICENTER":"102.5033","COUNTRY_CODE":"US","REV_AT_EPOCH":"18166","MEAN_MOTION_DDOT":"0.0000000000000","RCS_SIZE":"LARGE","INCLINATION":"53.0568","RA_OF_ASC_NODE":"31.5989","MEAN_MOTION":"15.11166473","CLASSIFICATION_TYPE":"U","PERIOD":"95.291","LAUNCH_DATE":"2020-01-07","MEAN_MOTION_DOT":"-0.00000356","TLE_LINE1":"1 44931U 20001T   23108.82117665 -.00000356  00000-0 -35899-5 0  9999","EPHEMERIS_TYPE":"0","BSTAR":"-0.00000358990000","TIME_SYSTEM":"UTC","TLE_LINE2":"2 44931  53.0568  31.5989 0001261 102.5033 257.6100 15.11166473181667","OBJECT_TYPE":"PAYLOAD","FILE":"3889987","OBJECT_NAME":"STARLINK-1128","SITE":"AFETR","ECCENTRICITY":"0.00012610","SEMIMAJOR_AXIS":"6910.778","PERIAPSIS":"531.772","MEAN_ANOMALY":"257.6100","REF_FRAME":"TEME","OBJECT_ID":"2020-001T","MEAN_ELEMENT_THEORY":"SGP4"},{"PERIOD":"95.593","CLASSIFICATION_TYPE":"U","MEAN_MOTION":"15.06391129","RA_OF_ASC_NODE":"46.3853","RCS_SIZE":"LARGE","MEAN_MOTION_DDOT":"0.0000000000000","INCLINATION":"53.0551","COUNTRY_CODE":"US","REV_AT_EPOCH":"18194","CENTER_NAME":"EARTH","ARG_OF_PERICENTER":"89.1826","GP_ID":"230327735","DECAY_DATE":null,"NORAD_CAT_ID":"44932","APOAPSIS":"548.638","ELEMENT_SET_NO":"999","EPOCH":"2023-04-18T20:49:24.723264","REF_FRAME":"TEME","OBJECT_ID":"2020-001U","MEAN_ELEMENT_THEORY":"SGP4","MEAN_ANOMALY":"270.9394","PERIAPSIS":"545.844","SITE":"AFETR","ECCENTRICITY":"0.00020170","OBJECT_NAME":"STARLINK-1130","SEMIMAJOR_AXIS":"6925.376","OBJECT_TYPE":"PAYLOAD","FILE":"3889987","TIME_SYSTEM":"UTC","TLE_LINE2":"2 44932  53.0551  46.3853 0002017  89.1826 270.9394 15.06391129181940","BSTAR":"0.00098325000000","EPHEMERIS_TYPE":"0","TLE_LINE1":"1 44932U 20001U   23108.86764726  .00014391  00000-0  98325-3 0  9993","LAUNCH_DATE":"2020-01-07","MEAN_MOTION_DOT":"0.00014391"},{"SEMIMAJOR_AXIS":"6925.315","SITE":"AFETR","OBJECT_NAME":"STARLINK-1144","ECCENTRICITY":"0.00011870","PERIAPSIS":"546.358","MEAN_ANOMALY":"270.4080","MEAN_ELEMENT_THEORY":"SGP4","OBJECT_ID":"2020-001V","REF_FRAME":"TEME","EPHEMERIS_TYPE":"0","MEAN_MOTION_DOT":"0.00018681","LAUNCH_DATE":"2020-01-07","TLE_LINE1":"1 44933U 20001V   23108.82711050  .00018681  00000-0  12693-2 0  9991","TLE_LINE2":"2 44933  53.0548  46.5654 0001187  89.7045 270.4080 15.06410818181993","TIME_SYSTEM":"UTC","FILE":"3889987","OBJECT_TYPE":"PAYLOAD","BSTAR":"0.00126930000000","RCS_SIZE":"LARGE","INCLINATION":"53.0548","MEAN_MOTION_DDOT":"0.0000000000000","CLASSIFICATION_TYPE":"U","PERIOD":"95.591","RA_OF_ASC_NODE":"46.5654","MEAN_MOTION":"15.06410818","APOAPSIS":"548.002","NORAD_CAT_ID":"44933","EPOCH":"2023-04-18T19:51:02.347200","ELEMENT_SET_NO":"999","ARG_OF_PERICENTER":"89.7045","CENTER_NAME":"EARTH","REV_AT_EPOCH":"18199","COUNTRY_CODE":"US","DECAY_DATE":null,"GP_ID":"230327983"},{"PERIAPSIS":"546.394","SEMIMAJOR_AXIS":"6925.310","SITE":"AFETR","ECCENTRICITY":"0.00011280","OBJECT_NAME":"STARLINK-1071","MEAN_ELEMENT_THEORY":"SGP4","OBJECT_ID":"2020-001W","REF_FRAME":"TEME","MEAN_ANOMALY":"274.7664","TLE_LINE1":"1 44934U 20001W   23108.77366804  .00025414  00000-0  17183-2 0  9990","MEAN_MOTION_DOT":"0.00025414","LAUNCH_DATE":"2020-01-07","EPHEMERIS_TYPE":"0","BSTAR":"0.00171830000000","FILE":"3889987","OBJECT_TYPE":"PAYLOAD","TIME_SYSTEM":"UTC","TLE_LINE2":"2 44934  53.0552  26.8068 0001128  85.3454 274.7664 15.06412545180971","INCLINATION":"53.0552","RCS_SIZE":"LARGE","MEAN_MOTION_DDOT":"0.0000000000000","MEAN_MOTION":"15.06412545","RA_OF_ASC_NODE":"26.8068","PERIOD":"95.591","CLASSIFICATION_TYPE":"U","ELEMENT_SET_NO":"999","EPOCH":"2023-04-18T18:34:04.918656","NORAD_CAT_ID":"44934","APOAPSIS":"547.956","DECAY_DATE":null,"GP_ID":"230327237","REV_AT_EPOCH":"18097","COUNTRY_CODE":"US","ARG_OF_PERICENTER":"85.3454","CENTER_NAME":"EARTH"}];
